IRIDIUM 112             
1 41925U 17003J   23261.76923611  .00000412  00000+0  13992-3 0  9994
2 41925  86.4005 147.2729 0002075  90.7640 269.3794 14.34220070349591
IRIDIUM 111             
1 41926U 17003K   23261.75655701  .00000319  00000+0  10691-3 0  9995
2 41926  86.4006 147.3266 0002340  79.0249 281.1210 14.34216285349576
IRIDIUM 113             
1 42803U 17039A   23262.08535850  .00000540  00000+0  18562-3 0  9999
2 42803  86.4022  20.9126 0002308  93.0251 267.1208 14.34220626327552
IRIDIUM 123             
1 42804U 17039B   23261.91753131  .00000201  00000+0  64548-4 0  9995
2 42804  86.3958  52.4844 0002374  96.1859 263.9608 14.34218839326299
IRIDIUM 120             
1 42805U 17039C   23262.07902079  .00000580  00000+0  20004-3 0  9999
2 42805  86.4009  20.8276 0002133  91.6192 268.5248 14.34220869327545
IRIDIUM 115             
1 42806U 17039D   23262.08283123  .00000751  00000+0  21710-3 0  9998
2 42806  86.4549  20.8127 0002429  89.3242 270.8238 14.43319145329721
IRIDIUM 118             
1 42807U 17039E   23261.94925135  .00000197  00000+0  63330-4 0  9998
2 42807  86.3955  52.4735 0002048  93.4181 266.7249 14.34218696326309
IRIDIUM 117             
1 42808U 17039F   23261.82873908  .00000188  00000+0  60171-4 0  9996
2 42808  86.3955  52.4906 0002139  91.2814 268.8627 14.34216567326308
